IRIDIUM 119             
1 42959U 17061E   24240.44211196  .00000399  00000+0  13531-3 0  9990
2 42959  86.3960 300.5374 0002184  86.0895 274.0551 14.34220420360393
IRIDIUM 107             
1 42960U 17061F   24240.25183562  .00000321  00000+0  10765-3 0  9997
2 42960  86.3961 300.6342 0002074  88.7014 271.4419 14.34220330360374
IRIDIUM 132             
1 42961U 17061G   24240.25817873  .00000114  00000+0  33766-4 0  9994
2 42961  86.3963 300.6159 0001876  92.1931 267.9479 14.34217589360377
IRIDIUM 136             
1 42962U 17061H   24240.42943189  .00000165  00000+0  51843-4 0  9996
2 42962  86.3963 300.5479 0002354  88.5980 271.5485 14.34219280360410
IRIDIUM 139             
1 42963U 17061J   24240.22646618 -.00000427  00000+0 -15954-3 0  9997
2 42963  86.3961 300.6835 0001869  83.9206 276.2203 14.34216885360391
IRIDIUM 125             
1 42964U 17061K   24240.56262481  .00000154  00000+0  48080-4 0  9999
2 42964  86.3963 300.5923 0002280  78.6597 281.4855 14.34217398360451
IRIDIUM 135             
1 43070U 17083A   24240.39721225 -.00000096  00000+0 -41255-4 0  9993
2 43070  86.3936 237.2916 0002195  97.5554 262.5891 14.34217351349722
IRIDIUM 138             
1 43071U 17083B   24240.42258388 -.00000013  00000+0 -11753-4 0  9992
2 43071  86.3926 236.9893 0002462  82.3284 277.8191 14.34217581349717
